EUTELSAT 7A             
1 28187U 04008A   26003.23580675  .00000102  00000+0  00000+0 0  9996
2 28187   5.4121  74.0013 0001435 231.9604 102.5719  1.00270850 79693
EUTELSAT 174A           
1 28924U 05052A   26003.06732418  .00000010  00000+0  00000+0 0  9998
2 28924   3.8010  78.5976 0006338 206.5632  15.7392  1.00271771 50676
EUTELSAT HOTBIRD 13B    
1 29270U 06032A   26003.25339868  .00000158  00000+0  00000+0 0  9998
2 29270   1.2362  84.1667 0003601 203.0824 299.9318  1.00272600 45656
EUTELSAT HOTBIRD 13C    
1 33459U 08065A   26003.23684523 -.00000281  00000+0  00000+0 0  9997
2 33459   2.5267  81.1771 0003741 203.6667 212.9703  1.00269256 45697
EUTELSAT 36B            
1 36101U 09065A   26003.25686537  .00000116  00000+0  00000+0 0  9990
2 36101   0.0792  57.9824 0005806 223.4646 324.4143  1.00268769 59051
EUTELSAT KA-SAT 9A      
1 37258U 10069A   26003.09003455  .00000067  00000+0  00000+0 0  9999
2 37258   0.0507 338.9130 0001383 204.2445 320.9626  1.00274139 42351
EUTELSAT 7 WEST A       
1 37816U 11051A   26003.24542530 -.00000056  00000+0  00000+0 0  9999
2 37816   0.0639  13.3478 0005040 225.7557 304.8047  1.00271269 52228
EUTELSAT 16A            
1 37836U 11057A   26003.25001866  .00000108  00000+0  00000+0 0  9997
2 37836   0.0566  12.0818 0005485 272.0158 284.7828  1.00269597  5679
